ORBCOMM FM05            
1 25117U 97084F   25341.94597231  .00002679  00000+0  77400-3 0  9993
2 25117  45.0135 253.3672 0003426   2.5507 357.5361 14.46681605465767
ORBCOMM FM06            
1 25118U 97084G   25341.78892322  .00003292  00000+0  93865-3 0  9990
2 25118  45.0127 253.6526 0002387 356.5852  38.1555 14.46843343466666
ORBCOMM FM07            
1 25119U 97084H   25341.93276728  .00002461  00000+0  71163-3 0  9998
2 25119  45.0123 253.7118 0004263   1.6604 358.4262 14.46853083466675
ORBCOMM FM03            
1 25158U 98007B   25341.94670334  .00001899  00000+0  70339-3 0  9997
2 25158 107.9637 132.6431 0046357 302.6453  57.0218 14.35004849448966
ORBCOMM FM04            
1 25159U 98007C   25341.97093751  .00001994  00000+0  73422-3 0  9995
2 25159 107.9628 136.0321 0042242 299.8330  59.8614 14.35249789449159
ORBCOMM FM17            
1 25413U 98046A   25341.85617269  .00001627  00000+0  60903-3 0  9997
2 25413  44.9924 157.7398 0002343  19.0733 341.0201 14.35519081428129
ORBCOMM FM18            
1 25414U 98046B   25341.93781866  .00002281  00000+0  77562-3 0  9998
2 25414  44.9928  70.0249 0003054  98.7293 261.3902 14.39131033429271
ORBCOMM FM19            
1 25415U 98046C   25341.79769081  .00002665  00000+0  90175-3 0  9999
2 25415  44.9937  72.9557 0001816 101.1597  51.0056 14.38951192429207
