<?xml version="1.0" encoding="UTF-8"?>
<ndm xmlns:xsi="http://www.w3.org/2001/XMLSchema-instance" xsi:noNamespaceSchemaLocation="https://sanaregistry.org/r/ndmxml_unqualified/ndmxml-2.0.0-master-2.0.xsd">
<omm id="CCSDS_OMM_VERS" version="2.0">
<header><CREATION_DATE/><ORIGINATOR/></header><body><segment><metadata><OBJECT_NAME>ORBCOMM FM05</OBJECT_NAME><OBJECT_ID>1997-084F</OBJECT_ID><CENTER_NAME>EARTH</CENTER_NAME><REF_FRAME>TEME</REF_FRAME><TIME_SYSTEM>UTC</TIME_SYSTEM><MEAN_ELEMENT_THEORY>SGP4</MEAN_ELEMENT_THEORY></metadata><data><meanElements><EPOCH>2025-12-07T22:42:12.007584</EPOCH><MEAN_MOTION>14.46681605</MEAN_MOTION><ECCENTRICITY>.00034261</ECCENTRICITY><INCLINATION>45.0135</INCLINATION><RA_OF_ASC_NODE>253.3672</RA_OF_ASC_NODE><ARG_OF_PERICENTER>2.5507</ARG_OF_PERICENTER><MEAN_ANOMALY>357.5361</MEAN_ANOMALY></meanElements><tleParameters><EPHEMERIS_TYPE>0</EPHEMERIS_TYPE><CLASSIFICATION_TYPE>U</CLASSIFICATION_TYPE><NORAD_CAT_ID>25117</NORAD_CAT_ID><ELEMENT_SET_NO>999</ELEMENT_SET_NO><REV_AT_EPOCH>46576</REV_AT_EPOCH><BSTAR>.77400482E-3</BSTAR><MEAN_MOTION_DOT>.2679E-4</MEAN_MOTION_DOT><MEAN_MOTION_DDOT>0</MEAN_MOTION_DDOT></tleParameters></data></segment></body></omm>
<omm id="CCSDS_OMM_VERS" version="2.0">
<header><CREATION_DATE/><ORIGINATOR/></header><body><segment><metadata><OBJECT_NAME>ORBCOMM FM06</OBJECT_NAME><OBJECT_ID>1997-084G</OBJECT_ID><CENTER_NAME>EARTH</CENTER_NAME><REF_FRAME>TEME</REF_FRAME><TIME_SYSTEM>UTC</TIME_SYSTEM><MEAN_ELEMENT_THEORY>SGP4</MEAN_ELEMENT_THEORY></metadata><data><meanElements><EPOCH>2025-12-07T18:56:02.966208</EPOCH><MEAN_MOTION>14.46843343</MEAN_MOTION><ECCENTRICITY>.0002387</ECCENTRICITY><INCLINATION>45.0127</INCLINATION><RA_OF_ASC_NODE>253.6526</RA_OF_ASC_NODE><ARG_OF_PERICENTER>356.5852</ARG_OF_PERICENTER><MEAN_ANOMALY>38.1555</MEAN_ANOMALY></meanElements><tleParameters><EPHEMERIS_TYPE>0</EPHEMERIS_TYPE><CLASSIFICATION_TYPE>U</CLASSIFICATION_TYPE><NORAD_CAT_ID>25118</NORAD_CAT_ID><ELEMENT_SET_NO>999</ELEMENT_SET_NO><REV_AT_EPOCH>46666</REV_AT_EPOCH><BSTAR>.93865269E-3</BSTAR><MEAN_MOTION_DOT>.3292E-4</MEAN_MOTION_DOT><MEAN_MOTION_DDOT>0</MEAN_MOTION_DDOT></tleParameters></data></segment></body></omm>
<omm id="CCSDS_OMM_VERS" version="2.0">
<header><CREATION_DATE/><ORIGINATOR/></header><body><segment><metadata><OBJECT_NAME>ORBCOMM FM07</OBJECT_NAME><OBJECT_ID>1997-084H</OBJECT_ID><CENTER_NAME>EARTH</CENTER_NAME><REF_FRAME>TEME</REF_FRAME><TIME_SYSTEM>UTC</TIME_SYSTEM><MEAN_ELEMENT_THEORY>SGP4</MEAN_ELEMENT_THEORY></metadata><data><meanElements><EPOCH>2025-12-07T22:23:11.092992</EPOCH><MEAN_MOTION>14.46853083</MEAN_MOTION><ECCENTRICITY>.00042639</ECCENTRICITY><INCLINATION>45.0123</INCLINATION><RA_OF_ASC_NODE>253.7118</RA_OF_ASC_NODE><ARG_OF_PERICENTER>1.6604</ARG_OF_PERICENTER><MEAN_ANOMALY>358.4262</MEAN_ANOMALY></meanElements><tleParameters><EPHEMERIS_TYPE>0</EPHEMERIS_TYPE><CLASSIFICATION_TYPE>U</CLASSIFICATION_TYPE><NORAD_CAT_ID>25119</NORAD_CAT_ID><ELEMENT_SET_NO>999</ELEMENT_SET_NO><REV_AT_EPOCH>46667</REV_AT_EPOCH><BSTAR>.71162634E-3</BSTAR><MEAN_MOTION_DOT>.2461E-4</MEAN_MOTION_DOT><MEAN_MOTION_DDOT>0</MEAN_MOTION_DDOT></tleParameters></data></segment></body></omm>
<omm id="CCSDS_OMM_VERS" version="2.0">
<header><CREATION_DATE/><ORIGINATOR/></header><body><segment><metadata><OBJECT_NAME>ORBCOMM FM03</OBJECT_NAME><OBJECT_ID>1998-007B</OBJECT_ID><CENTER_NAME>EARTH</CENTER_NAME><REF_FRAME>TEME</REF_FRAME><TIME_SYSTEM>UTC</TIME_SYSTEM><MEAN_ELEMENT_THEORY>SGP4</MEAN_ELEMENT_THEORY></metadata><data><meanElements><EPOCH>2025-12-07T22:43:15.168576</EPOCH><MEAN_MOTION>14.35004849</MEAN_MOTION><ECCENTRICITY>.00463573</ECCENTRICITY><INCLINATION>107.9637</INCLINATION><RA_OF_ASC_NODE>132.6431</RA_OF_ASC_NODE><ARG_OF_PERICENTER>302.6453</ARG_OF_PERICENTER><MEAN_ANOMALY>57.0218</MEAN_ANOMALY></meanElements><tleParameters><EPHEMERIS_TYPE>0</EPHEMERIS_TYPE><CLASSIFICATION_TYPE>U</CLASSIFICATION_TYPE><NORAD_CAT_ID>25158</NORAD_CAT_ID><ELEMENT_SET_NO>999</ELEMENT_SET_NO><REV_AT_EPOCH>44896</REV_AT_EPOCH><BSTAR>.70338917E-3</BSTAR><MEAN_MOTION_DOT>.1899E-4</MEAN_MOTION_DOT><MEAN_MOTION_DDOT>0</MEAN_MOTION_DDOT></tleParameters></data></segment></body></omm>
<omm id="CCSDS_OMM_VERS" version="2.0">
<header><CREATION_DATE/><ORIGINATOR/></header><body><segment><metadata><OBJECT_NAME>ORBCOMM FM04</OBJECT_NAME><OBJECT_ID>1998-007C</OBJECT_ID><CENTER_NAME>EARTH</CENTER_NAME><REF_FRAME>TEME</REF_FRAME><TIME_SYSTEM>UTC</TIME_SYSTEM><MEAN_ELEMENT_THEORY>SGP4</MEAN_ELEMENT_THEORY></metadata><data><meanElements><EPOCH>2025-12-07T23:18:09.000864</EPOCH><MEAN_MOTION>14.35249789</MEAN_MOTION><ECCENTRICITY>.00422425</ECCENTRICITY><INCLINATION>107.9628</INCLINATION><RA_OF_ASC_NODE>136.0321</RA_OF_ASC_NODE><ARG_OF_PERICENTER>299.8330</ARG_OF_PERICENTER><MEAN_ANOMALY>59.8614</MEAN_ANOMALY></meanElements><tleParameters><EPHEMERIS_TYPE>0</EPHEMERIS_TYPE><CLASSIFICATION_TYPE>U</CLASSIFICATION_TYPE><NORAD_CAT_ID>25159</NORAD_CAT_ID><ELEMENT_SET_NO>999</ELEMENT_SET_NO><REV_AT_EPOCH>44915</REV_AT_EPOCH><BSTAR>.73421747E-3</BSTAR><MEAN_MOTION_DOT>.1994E-4</MEAN_MOTION_DOT><MEAN_MOTION_DDOT>0</MEAN_MOTION_DDOT></tleParameters></data></segment></body></omm>
<omm id="CCSDS_OMM_VERS" version="2.0">
<header><CREATION_DATE/><ORIGINATOR/></header><body><segment><metadata><OBJECT_NAME>ORBCOMM FM17</OBJECT_NAME><OBJECT_ID>1998-046A</OBJECT_ID><CENTER_NAME>EARTH</CENTER_NAME><REF_FRAME>TEME</REF_FRAME><TIME_SYSTEM>UTC</TIME_SYSTEM><MEAN_ELEMENT_THEORY>SGP4</MEAN_ELEMENT_THEORY></metadata><data><meanElements><EPOCH>2025-12-07T20:32:53.320416</EPOCH><MEAN_MOTION>14.35519081</MEAN_MOTION><ECCENTRICITY>.00023434</ECCENTRICITY><INCLINATION>44.9924</INCLINATION><RA_OF_ASC_NODE>157.7398</RA_OF_ASC_NODE><ARG_OF_PERICENTER>19.0733</ARG_OF_PERICENTER><MEAN_ANOMALY>341.0201</MEAN_ANOMALY></meanElements><tleParameters><EPHEMERIS_TYPE>0</EPHEMERIS_TYPE><CLASSIFICATION_TYPE>U</CLASSIFICATION_TYPE><NORAD_CAT_ID>25413</NORAD_CAT_ID><ELEMENT_SET_NO>999</ELEMENT_SET_NO><REV_AT_EPOCH>42812</REV_AT_EPOCH><BSTAR>.6090291E-3</BSTAR><MEAN_MOTION_DOT>.1627E-4</MEAN_MOTION_DOT><MEAN_MOTION_DDOT>0</MEAN_MOTION_DDOT></tleParameters></data></segment></body></omm>
<omm id="CCSDS_OMM_VERS" version="2.0">
<header><CREATION_DATE/><ORIGINATOR/></header><body><segment><metadata><OBJECT_NAME>ORBCOMM FM18</OBJECT_NAME><OBJECT_ID>1998-046B</OBJECT_ID><CENTER_NAME>EARTH</CENTER_NAME><REF_FRAME>TEME</REF_FRAME><TIME_SYSTEM>UTC</TIME_SYSTEM><MEAN_ELEMENT_THEORY>SGP4</MEAN_ELEMENT_THEORY></metadata><data><meanElements><EPOCH>2025-12-07T22:30:27.532224</EPOCH><MEAN_MOTION>14.39131033</MEAN_MOTION><ECCENTRICITY>.00030548</ECCENTRICITY><INCLINATION>44.9928</INCLINATION><RA_OF_ASC_NODE>70.0249</RA_OF_ASC_NODE><ARG_OF_PERICENTER>98.7293</ARG_OF_PERICENTER><MEAN_ANOMALY>261.3902</MEAN_ANOMALY></meanElements><tleParameters><EPHEMERIS_TYPE>0</EPHEMERIS_TYPE><CLASSIFICATION_TYPE>U</CLASSIFICATION_TYPE><NORAD_CAT_ID>25414</NORAD_CAT_ID><ELEMENT_SET_NO>999</ELEMENT_SET_NO><REV_AT_EPOCH>42927</REV_AT_EPOCH><BSTAR>.77562209E-3</BSTAR><MEAN_MOTION_DOT>.2281E-4</MEAN_MOTION_DOT><MEAN_MOTION_DDOT>0</MEAN_MOTION_DDOT></tleParameters></data></segment></body></omm>
<omm id="CCSDS_OMM_VERS" version="2.0">
<header><CREATION_DATE/><ORIGINATOR/></header><body><segment><metadata><OBJECT_NAME>ORBCOMM FM19</OBJECT_NAME><OBJECT_ID>1998-046C</OBJECT_ID><CENTER_NAME>EARTH</CENTER_NAME><REF_FRAME>TEME</REF_FRAME><TIME_SYSTEM>UTC</TIME_SYSTEM><MEAN_ELEMENT_THEORY>SGP4</MEAN_ELEMENT_THEORY></metadata><data><meanElements><EPOCH>2025-12-07T19:08:40.485984</EPOCH><MEAN_MOTION>14.38951192</MEAN_MOTION><ECCENTRICITY>.00018163</ECCENTRICITY><INCLINATION>44.9937</INCLINATION><RA_OF_ASC_NODE>72.9557</RA_OF_ASC_NODE><ARG_OF_PERICENTER>101.1597</ARG_OF_PERICENTER><MEAN_ANOMALY>51.0056</MEAN_ANOMALY></meanElements><tleParameters><EPHEMERIS_TYPE>0</EPHEMERIS_TYPE><CLASSIFICATION_TYPE>U</CLASSIFICATION_TYPE><NORAD_CAT_ID>25415</NORAD_CAT_ID><ELEMENT_SET_NO>999</ELEMENT_SET_NO><REV_AT_EPOCH>42920</REV_AT_EPOCH><BSTAR>.90175125E-3</BSTAR><MEAN_MOTION_DOT>.2665E-4</MEAN_MOTION_DOT><MEAN_MOTION_DDOT>0</MEAN_MOTION_DDOT></tleParameters></data></segment></body></omm>

</ndm>
